ISS (ZARYA)             
1 25544U 98067A   25338.54339931  .00015910  00000+0  29318-3 0  9999
2 25544  51.6299 183.0583 0003595 202.7086 157.3744 15.49306035541589
CSS (TIANHE)            
1 48274U 21035A   25338.64265035  .00037639  00000+0  47697-3 0  9991
2 48274  41.4682  65.8455 0009974 328.5002  31.5238 15.58669844262765
ISS (NAUKA)             
1 49044U 21066A   25338.54339931  .00015910  00000+0  29318-3 0  9995
2 49044  51.6299 183.0583 0003595 202.7086 157.3744 15.49306035230440
FREGAT DEB              
1 49271U 11037PF  25337.09806687  .00005106  00000+0  11436-1 0  9996
2 49271  51.6221 227.9391 0868359 202.8869 153.0958 12.34338715200740
CSS (WENTIAN)           
1 53239U 22085A   25338.64265035  .00037639  00000+0  47697-3 0  9994
2 53239  41.4682  65.8455 0009974 328.5002  31.5238 15.58669844173842
CSS (MENGTIAN)          
1 54216U 22143A   25338.64265035  .00037639  00000+0  47697-3 0  9995
2 54216  41.4682  65.8455 0009974 328.5002  31.5238 15.58669844158649
SOYUZ-MS 27             
1 63520U 25072A   25338.54339931  .00015910  00000+0  29318-3 0  9991
2 63520  51.6299 183.0583 0003595 202.7086 157.3744 15.49306035 20206
SHENZHOU-20 (SZ-20)     
1 63632U 25082A   25338.64265035  .00037639  00000+0  47697-3 0  9992
2 63632  41.4682  65.8455 0009974 328.5002  31.5238 15.58669844255302
PROGRESS-MS 31          
1 64751U 25146A   25338.54339931  .00015910  00000+0  29318-3 0  9990
2 64751  51.6299 183.0583 0003595 202.7086 157.3744 15.49306035  6757
TIANZHOU-9              
1 64786U 25149A   25338.64265035  .00037639  00000+0  47697-3 0  9997
2 64786  41.4682  65.8455 0009974 328.5002  31.5238 15.58669844255303
CREW DRAGON 11          
1 65077U 25166A   25338.54339931  .00015910  00000+0  29318-3 0  9994
2 65077  51.6299 183.0583 0003595 202.7086 157.3744 15.49306035  2148
DRAGON CRS-33           
1 65304U 25186A   25338.54339931  .00015910  00000+0  29318-3 0  9999
2 65304  51.6299 183.0583 0003595 202.7086 157.3744 15.49306035   116
