CCSDS_OMM_VERS = 2.0
CREATION_DATE  = 
ORIGINATOR     = 

OBJECT_NAME    = ISS (ZARYA)
OBJECT_ID      = 1998-067A
CENTER_NAME    = EARTH
REF_FRAME      = TEME
TIME_SYSTEM    = UTC
MEAN_ELEMENT_THEORY = SGP/SGP4

EPOCH          = 2025-12-04T13:02:29.700384
MEAN_MOTION    = 15.49306035
ECCENTRICITY   = .0003596
INCLINATION    = 51.6299
RA_OF_ASC_NODE = 183.0583
ARG_OF_PERICENTER = 202.7086
MEAN_ANOMALY   = 157.3744

EPHEMERIS_TYPE = 0
CLASSIFICATION_TYPE = U
NORAD_CAT_ID   = 25544
ELEMENT_SET_NO = 999
REV_AT_EPOCH   = 54158
BSTAR          = .29318E-3
MEAN_MOTION_DOT = .1591E-3
MEAN_MOTION_DDOT = 0

CCSDS_OMM_VERS = 2.0
CREATION_DATE  = 
ORIGINATOR     = 

OBJECT_NAME    = CSS (TIANHE)
OBJECT_ID      = 2021-035A
CENTER_NAME    = EARTH
REF_FRAME      = TEME
TIME_SYSTEM    = UTC
MEAN_ELEMENT_THEORY = SGP/SGP4

EPOCH          = 2025-12-04T15:25:24.990240
MEAN_MOTION    = 15.58669844
ECCENTRICITY   = .0009975
INCLINATION    = 41.4682
RA_OF_ASC_NODE = 65.8455
ARG_OF_PERICENTER = 328.5002
MEAN_ANOMALY   = 31.5238

EPHEMERIS_TYPE = 0
CLASSIFICATION_TYPE = U
NORAD_CAT_ID   = 48274
ELEMENT_SET_NO = 999
REV_AT_EPOCH   = 26276
BSTAR          = .47697E-3
MEAN_MOTION_DOT = .37639E-3
MEAN_MOTION_DDOT = 0

CCSDS_OMM_VERS = 2.0
CREATION_DATE  = 
ORIGINATOR     = 

OBJECT_NAME    = ISS (NAUKA)
OBJECT_ID      = 2021-066A
CENTER_NAME    = EARTH
REF_FRAME      = TEME
TIME_SYSTEM    = UTC
MEAN_ELEMENT_THEORY = SGP/SGP4

EPOCH          = 2025-12-04T13:02:29.700384
MEAN_MOTION    = 15.49306035
ECCENTRICITY   = .00035956
INCLINATION    = 51.6299
RA_OF_ASC_NODE = 183.0583
ARG_OF_PERICENTER = 202.7086
MEAN_ANOMALY   = 157.3744

EPHEMERIS_TYPE = 0
CLASSIFICATION_TYPE = U
NORAD_CAT_ID   = 49044
ELEMENT_SET_NO = 999
REV_AT_EPOCH   = 23044
BSTAR          = .29317999E-3
MEAN_MOTION_DOT = .1591E-3
MEAN_MOTION_DDOT = 0

CCSDS_OMM_VERS = 2.0
CREATION_DATE  = 
ORIGINATOR     = 

OBJECT_NAME    = FREGAT DEB
OBJECT_ID      = 2011-037PF
CENTER_NAME    = EARTH
REF_FRAME      = TEME
TIME_SYSTEM    = UTC
MEAN_ELEMENT_THEORY = SGP/SGP4

EPOCH          = 2025-12-03T02:21:12.977568
MEAN_MOTION    = 12.34338715
ECCENTRICITY   = .08683593
INCLINATION    = 51.6221
RA_OF_ASC_NODE = 227.9391
ARG_OF_PERICENTER = 202.8869
MEAN_ANOMALY   = 153.0958

EPHEMERIS_TYPE = 0
CLASSIFICATION_TYPE = U
NORAD_CAT_ID   = 49271
ELEMENT_SET_NO = 999
REV_AT_EPOCH   = 20074
BSTAR          = .11436404E-1
MEAN_MOTION_DOT = .5106E-4
MEAN_MOTION_DDOT = 0

CCSDS_OMM_VERS = 2.0
CREATION_DATE  = 
ORIGINATOR     = 

OBJECT_NAME    = CSS (WENTIAN)
OBJECT_ID      = 2022-085A
CENTER_NAME    = EARTH
REF_FRAME      = TEME
TIME_SYSTEM    = UTC
MEAN_ELEMENT_THEORY = SGP/SGP4

EPOCH          = 2025-12-04T15:25:24.990240
MEAN_MOTION    = 15.58669844
ECCENTRICITY   = .00099747
INCLINATION    = 41.4682
RA_OF_ASC_NODE = 65.8455
ARG_OF_PERICENTER = 328.5002
MEAN_ANOMALY   = 31.5238

EPHEMERIS_TYPE = 0
CLASSIFICATION_TYPE = U
NORAD_CAT_ID   = 53239
ELEMENT_SET_NO = 999
REV_AT_EPOCH   = 17384
BSTAR          = .47697443E-3
MEAN_MOTION_DOT = .37639E-3
MEAN_MOTION_DDOT = 0

CCSDS_OMM_VERS = 2.0
CREATION_DATE  = 
ORIGINATOR     = 

OBJECT_NAME    = CSS (MENGTIAN)
OBJECT_ID      = 2022-143A
CENTER_NAME    = EARTH
REF_FRAME      = TEME
TIME_SYSTEM    = UTC
MEAN_ELEMENT_THEORY = SGP/SGP4

EPOCH          = 2025-12-04T15:25:24.990240
MEAN_MOTION    = 15.58669844
ECCENTRICITY   = .00099747
INCLINATION    = 41.4682
RA_OF_ASC_NODE = 65.8455
ARG_OF_PERICENTER = 328.5002
MEAN_ANOMALY   = 31.5238

EPHEMERIS_TYPE = 0
CLASSIFICATION_TYPE = U
NORAD_CAT_ID   = 54216
ELEMENT_SET_NO = 999
REV_AT_EPOCH   = 15864
BSTAR          = .47697443E-3
MEAN_MOTION_DOT = .37639E-3
MEAN_MOTION_DDOT = 0

CCSDS_OMM_VERS = 2.0
CREATION_DATE  = 
ORIGINATOR     = 

OBJECT_NAME    = SOYUZ-MS 27
OBJECT_ID      = 2025-072A
CENTER_NAME    = EARTH
REF_FRAME      = TEME
TIME_SYSTEM    = UTC
MEAN_ELEMENT_THEORY = SGP/SGP4

EPOCH          = 2025-12-04T13:02:29.700384
MEAN_MOTION    = 15.49306035
ECCENTRICITY   = .00035956
INCLINATION    = 51.6299
RA_OF_ASC_NODE = 183.0583
ARG_OF_PERICENTER = 202.7086
MEAN_ANOMALY   = 157.3744

EPHEMERIS_TYPE = 0
CLASSIFICATION_TYPE = U
NORAD_CAT_ID   = 63520
ELEMENT_SET_NO = 999
REV_AT_EPOCH   = 2020
BSTAR          = .29317999E-3
MEAN_MOTION_DOT = .1591E-3
MEAN_MOTION_DDOT = 0

CCSDS_OMM_VERS = 2.0
CREATION_DATE  = 
ORIGINATOR     = 

OBJECT_NAME    = SHENZHOU-20 (SZ-20)
OBJECT_ID      = 2025-082A
CENTER_NAME    = EARTH
REF_FRAME      = TEME
TIME_SYSTEM    = UTC
MEAN_ELEMENT_THEORY = SGP/SGP4

EPOCH          = 2025-12-04T15:25:24.990240
MEAN_MOTION    = 15.58669844
ECCENTRICITY   = .00099747
INCLINATION    = 41.4682
RA_OF_ASC_NODE = 65.8455
ARG_OF_PERICENTER = 328.5002
MEAN_ANOMALY   = 31.5238

EPHEMERIS_TYPE = 0
CLASSIFICATION_TYPE = U
NORAD_CAT_ID   = 63632
ELEMENT_SET_NO = 999
REV_AT_EPOCH   = 25530
BSTAR          = .47697443E-3
MEAN_MOTION_DOT = .37639E-3
MEAN_MOTION_DDOT = 0

CCSDS_OMM_VERS = 2.0
CREATION_DATE  = 
ORIGINATOR     = 

OBJECT_NAME    = PROGRESS-MS 31
OBJECT_ID      = 2025-146A
CENTER_NAME    = EARTH
REF_FRAME      = TEME
TIME_SYSTEM    = UTC
MEAN_ELEMENT_THEORY = SGP/SGP4

EPOCH          = 2025-12-04T13:02:29.700384
MEAN_MOTION    = 15.49306035
ECCENTRICITY   = .00035956
INCLINATION    = 51.6299
RA_OF_ASC_NODE = 183.0583
ARG_OF_PERICENTER = 202.7086
MEAN_ANOMALY   = 157.3744

EPHEMERIS_TYPE = 0
CLASSIFICATION_TYPE = U
NORAD_CAT_ID   = 64751
ELEMENT_SET_NO = 999
REV_AT_EPOCH   = 675
BSTAR          = .29317999E-3
MEAN_MOTION_DOT = .1591E-3
MEAN_MOTION_DDOT = 0

CCSDS_OMM_VERS = 2.0
CREATION_DATE  = 
ORIGINATOR     = 

OBJECT_NAME    = TIANZHOU-9
OBJECT_ID      = 2025-149A
CENTER_NAME    = EARTH
REF_FRAME      = TEME
TIME_SYSTEM    = UTC
MEAN_ELEMENT_THEORY = SGP/SGP4

EPOCH          = 2025-12-04T15:25:24.990240
MEAN_MOTION    = 15.58669844
ECCENTRICITY   = .00099747
INCLINATION    = 41.4682
RA_OF_ASC_NODE = 65.8455
ARG_OF_PERICENTER = 328.5002
MEAN_ANOMALY   = 31.5238

EPHEMERIS_TYPE = 0
CLASSIFICATION_TYPE = U
NORAD_CAT_ID   = 64786
ELEMENT_SET_NO = 999
REV_AT_EPOCH   = 25530
BSTAR          = .47697443E-3
MEAN_MOTION_DOT = .37639E-3
MEAN_MOTION_DDOT = 0

CCSDS_OMM_VERS = 2.0
CREATION_DATE  = 
ORIGINATOR     = 

OBJECT_NAME    = CREW DRAGON 11
OBJECT_ID      = 2025-166A
CENTER_NAME    = EARTH
REF_FRAME      = TEME
TIME_SYSTEM    = UTC
MEAN_ELEMENT_THEORY = SGP/SGP4

EPOCH          = 2025-12-04T13:02:29.700384
MEAN_MOTION    = 15.49306035
ECCENTRICITY   = .00035956
INCLINATION    = 51.6299
RA_OF_ASC_NODE = 183.0583
ARG_OF_PERICENTER = 202.7086
MEAN_ANOMALY   = 157.3744

EPHEMERIS_TYPE = 0
CLASSIFICATION_TYPE = U
NORAD_CAT_ID   = 65077
ELEMENT_SET_NO = 999
REV_AT_EPOCH   = 214
BSTAR          = .29317999E-3
MEAN_MOTION_DOT = .1591E-3
MEAN_MOTION_DDOT = 0

CCSDS_OMM_VERS = 2.0
CREATION_DATE  = 
ORIGINATOR     = 

OBJECT_NAME    = DRAGON CRS-33
OBJECT_ID      = 2025-186A
CENTER_NAME    = EARTH
REF_FRAME      = TEME
TIME_SYSTEM    = UTC
MEAN_ELEMENT_THEORY = SGP/SGP4

EPOCH          = 2025-12-04T13:02:29.700384
MEAN_MOTION    = 15.49306035
ECCENTRICITY   = .00035956
INCLINATION    = 51.6299
RA_OF_ASC_NODE = 183.0583
ARG_OF_PERICENTER = 202.7086
MEAN_ANOMALY   = 157.3744

EPHEMERIS_TYPE = 0
CLASSIFICATION_TYPE = U
NORAD_CAT_ID   = 65304
ELEMENT_SET_NO = 999
REV_AT_EPOCH   = 11
BSTAR          = .29317999E-3
MEAN_MOTION_DOT = .1591E-3
MEAN_MOTION_DDOT = 0

